{
  "type": "FeatureCollection",
  "features": [
    {
      "type": "Feature",
      "properties": {
        "norad_id": 43647,
        "name": "BEIDOU-3 M16 (C35)",
        "group": "gnss",
        "lat": -52.43825966855085,
        "lon": -164.37062311716832,
        "alt_km": 21544.337828431224,
        "timestamp": "2025-12-18T10:51:26.047607+00:00",
        "meta_object_name": "BEIDOU-3 M16 (C35)",
        "meta_object_id": "2018-078A",
        "meta_epoch": "2025-12-16T10:58:34.332384",
        "meta_mean_motion": 1.86232417,
        "meta_eccentricity": 0.00072794,
        "meta_inclination": 54.2586,
        "meta_ra_of_asc_node": 306.3912,
        "meta_arg_of_pericenter": 19.6101,
        "meta_mean_anomaly": 340.4043,
        "meta_ephemeris_type": 0,
        "meta_classification_type": "U",
        "meta_norad_cat_id": 43647,
        "meta_element_set_no": 999,
        "meta_rev_at_epoch": 4875,
        "meta_bstar": 0,
        "meta_mean_motion_dot": -9.5e-07,
        "meta_mean_motion_ddot": 0,
        "tle_line1": "1 43647U 18078A   25350.45734181 -.00000095  00000+0  00000+0 0  9999",
        "tle_line2": "2 43647  54.2586 306.3912 0007279  19.6101 340.4043  1.86232417 48759"
      },
      "geometry": {
        "type": "Point",
        "coordinates": [
          -164.37062311716832,
          -52.43825966855085
        ]
      }
    },
    {
      "type": "Feature",
      "properties": {
        "norad_id": 43648,
        "name": "BEIDOU-3 M15 (C34)",
        "group": "gnss",
        "lat": 7.267785366279929,
        "lon": 121.03145440176733,
        "alt_km": 21536.78310197812,
        "timestamp": "2025-12-18T10:51:26.047618+00:00",
        "meta_object_name": "BEIDOU-3 M15 (C34)",
        "meta_object_id": "2018-078B",
        "meta_epoch": "2025-12-17T15:51:04.131072",
        "meta_mean_motion": 1.86232271,
        "meta_eccentricity": 0.00039327,
        "meta_inclination": 54.253,
        "meta_ra_of_asc_node": 306.3494,
        "meta_arg_of_pericenter": 20.2564,
        "meta_mean_anomaly": 339.7463,
        "meta_ephemeris_type": 0,
        "meta_classification_type": "U",
        "meta_norad_cat_id": 43648,
        "meta_element_set_no": 999,
        "meta_rev_at_epoch": 4879,
        "meta_bstar": 0,
        "meta_mean_motion_dot": -8.8e-07,
        "meta_mean_motion_ddot": 0,
        "tle_line1": "1 43648U 18078B   25351.66046448 -.00000088  00000+0  00000+0 0  9998",
        "tle_line2": "2 43648  54.2530 306.3494 0003932  20.2564 339.7463  1.86232271 48796"
      },
      "geometry": {
        "type": "Point",
        "coordinates": [
          121.03145440176733,
          7.267785366279929
        ]
      }
    },
    {
      "type": "Feature",
      "properties": {
        "norad_id": 43683,
        "name": "BEIDOU-3 G1 (C59)",
        "group": "gnss",
        "lat": -2.484242596706086,
        "lon": 30.20676151220411,
        "alt_km": 35790.68404300914,
        "timestamp": "2025-12-18T10:51:26.047630+00:00",
        "meta_object_name": "BEIDOU-3 G1 (C59)",
        "meta_object_id": "2018-085A",
        "meta_epoch": "2025-12-17T20:50:22.386624",
        "meta_mean_motion": 1.00269423,
        "meta_eccentricity": 0.00016353,
        "meta_inclination": 2.6203,
        "meta_ra_of_asc_node": 102.8168,
        "meta_arg_of_pericenter": 48.69,
        "meta_mean_anomaly": 27.8697,
        "meta_ephemeris_type": 0,
        "meta_classification_type": "U",
        "meta_norad_cat_id": 43683,
        "meta_element_set_no": 999,
        "meta_rev_at_epoch": 2624,
        "meta_bstar": 0,
        "meta_mean_motion_dot": -2.54e-06,
        "meta_mean_motion_ddot": 0,
        "tle_line1": "1 43683U 18085A   25351.86831466 -.00000254  00000+0  00000+0 0  9994",
        "tle_line2": "2 43683   2.6203 102.8168 0001635  48.6900  27.8697  1.00269423 26247"
      },
      "geometry": {
        "type": "Point",
        "coordinates": [
          30.20676151220411,
          -2.484242596706086
        ]
      }
    },
    {
      "type": "Feature",
      "properties": {
        "norad_id": 43687,
        "name": "COSMOS 2529 (757)",
        "group": "gnss",
        "lat": -42.99279633014674,
        "lon": 172.002844817445,
        "alt_km": 19125.30563094075,
        "timestamp": "2025-12-18T10:51:26.047641+00:00",
        "meta_object_name": "COSMOS 2529 (757)",
        "meta_object_id": "2018-086A",
        "meta_epoch": "2025-12-17T02:36:34.858656",
        "meta_mean_motion": 2.13102066,
        "meta_eccentricity": 0.00070854,
        "meta_inclination": 64.292,
        "meta_ra_of_asc_node": 198.7408,
        "meta_arg_of_pericenter": 253.7168,
        "meta_mean_anomaly": 106.2877,
        "meta_ephemeris_type": 0,
        "meta_classification_type": "U",
        "meta_norad_cat_id": 43687,
        "meta_element_set_no": 999,
        "meta_rev_at_epoch": 5540,
        "meta_bstar": 0,
        "meta_mean_motion_dot": 1.11e-06,
        "meta_mean_motion_ddot": 0,
        "tle_line1": "1 43687U 18086A   25351.10873679  .00000111  00000+0  00000+0 0  9999",
        "tle_line2": "2 43687  64.2920 198.7408 0007085 253.7168 106.2877  2.13102066 55408"
      },
      "geometry": {
        "type": "Point",
        "coordinates": [
          172.002844817445,
          -42.99279633014674
        ]
      }
    },
    {
      "type": "Feature",
      "properties": {
        "norad_id": 43706,
        "name": "BEIDOU-3 M17 (C36)",
        "group": "gnss",
        "lat": 47.06856352573566,
        "lon": -120.58332130317353,
        "alt_km": 21530.385838374095,
        "timestamp": "2025-12-18T10:51:26.047653+00:00",
        "meta_object_name": "BEIDOU-3 M17 (C36)",
        "meta_object_id": "2018-093A",
        "meta_epoch": "2025-12-15T07:56:44.520576",
        "meta_mean_motion": 1.86228523,
        "meta_eccentricity": 0.00061371,
        "meta_inclination": 54.1729,
        "meta_ra_of_asc_node": 188.5337,
        "meta_arg_of_pericenter": 307.6759,
        "meta_mean_anomaly": 184.25,
        "meta_ephemeris_type": 0,
        "meta_classification_type": "U",
        "meta_norad_cat_id": 43706,
        "meta_element_set_no": 999,
        "meta_rev_at_epoch": 4811,
        "meta_bstar": 0,
        "meta_mean_motion_dot": 1.13e-06,
        "meta_mean_motion_ddot": 0,
        "tle_line1": "1 43706U 18093A   25349.33107084  .00000113  00000+0  00000+0 0  9993",
        "tle_line2": "2 43706  54.1729 188.5337 0006137 307.6759 184.2500  1.86228523 48110"
      },
      "geometry": {
        "type": "Point",
        "coordinates": [
          -120.58332130317353,
          47.06856352573566
        ]
      }
    },
    {
      "type": "Feature",
      "properties": {
        "norad_id": 43707,
        "name": "BEIDOU-3 M18 (C37)",
        "group": "gnss",
        "lat": 18.106507077783554,
        "lon": -5.243783503774864,
        "alt_km": 21543.270889823827,
        "timestamp": "2025-12-18T10:51:26.047664+00:00",
        "meta_object_name": "BEIDOU-3 M18 (C37)",
        "meta_object_id": "2018-093B",
        "meta_epoch": "2025-12-16T14:33:42.784416",
        "meta_mean_motion": 1.8622677,
        "meta_eccentricity": 0.00063186,
        "meta_inclination": 54.1735,
        "meta_ra_of_asc_node": 188.4822,
        "meta_arg_of_pericenter": 353.2257,
        "meta_mean_anomaly": 6.8349,
        "meta_ephemeris_type": 0,
        "meta_classification_type": "U",
        "meta_norad_cat_id": 43707,
        "meta_element_set_no": 999,
        "meta_rev_at_epoch": 4813,
        "meta_bstar": 0,
        "meta_mean_motion_dot": 1.15e-06,
        "meta_mean_motion_ddot": 0,
        "tle_line1": "1 43707U 18093B   25350.60674519  .00000115  00000+0  00000+0 0  9990",
        "tle_line2": "2 43707  54.1735 188.4822 0006318 353.2257   6.8349  1.86226770 48131"
      },
      "geometry": {
        "type": "Point",
        "coordinates": [
          -5.243783503774864,
          18.106507077783554
        ]
      }
    },
    {
      "type": "Feature",
      "properties": {
        "norad_id": 43873,
        "name": "GPS BIII-1  (PRN 04)",
        "group": "gnss",
        "lat": -40.24290120777748,
        "lon": 63.87993109985466,
        "alt_km": 20227.015232974867,
        "timestamp": "2025-12-18T10:51:26.047679+00:00",
        "meta_object_name": "GPS BIII-1  (PRN 04)",
        "meta_object_id": "2018-109A",
        "meta_epoch": "2025-12-15T18:29:34.483200",
        "meta_mean_motion": 2.00553802,
        "meta_eccentricity": 0.00374359,
        "meta_inclination": 55.5688,
        "meta_ra_of_asc_node": 99.4273,
        "meta_arg_of_pericenter": 195.145,
        "meta_mean_anomaly": 336.5518,
        "meta_ephemeris_type": 0,
        "meta_classification_type": "U",
        "meta_norad_cat_id": 43873,
        "meta_element_set_no": 999,
        "meta_rev_at_epoch": 5139,
        "meta_bstar": 0,
        "meta_mean_motion_dot": -3.2e-07,
        "meta_mean_motion_ddot": 0,
        "tle_line1": "1 43873U 18109A   25349.77053800 -.00000032  00000+0  00000+0 0  9991",
        "tle_line2": "2 43873  55.5688  99.4273 0037435 195.1450 336.5518  2.00553802 51399"
      },
      "geometry": {
        "type": "Point",
        "coordinates": [
          63.87993109985466,
          -40.24290120777748
        ]
      }
    }
  ]
}